ONEWEB-0687             
1 61595U 24188B   25090.91668981 -.00930871  00000+0 -18289+0 0  9999
2 61595  86.7166 100.7572 0006220  36.1211 126.7067 14.65524155  5763
ONEWEB-0688             
1 61596U 24188C   25090.91668981 -.00979324  00000+0 -18259+0 0  9993
2 61596  86.7047 100.7542 0005623  50.6106 169.6345 14.67992730  5753
ONEWEB-0689             
1 61597U 24188D   25091.25002315  .00000013  00000+0  00000+0 0  9998
2 61597  87.8708 109.2012 0004248  48.1868 275.9313 13.27382680 24642
ONEWEB-0690             
1 61598U 24188E   25091.25002315  .00000014  00000+0  00000+0 0  9990
2 61598  87.9293 109.1472 0008877  52.4255 280.7792 13.59157391 24775
ONEWEB-0691             
1 61599U 24188F   25091.25002315  .00000013  00000+0  00000+0 0  9990
2 61599  87.8681 109.1927 0006266  34.8527 145.9842 13.27998104 24810
ONEWEB-0692             
1 61600U 24188G   25091.25002315  .00000013  00000+0  00000+0 0  9993
2 61600  87.8645 109.1999 0005007  63.7352  90.7109 13.28093309 24740
ONEWEB-0693             
1 61601U 24188H   25091.25002315 -.00994877  00000+0 -21319+0 0  9992
2 61601  86.7412 100.5345 0004820  65.7068 294.1661 14.61829956 25331
ONEWEB-0695             
1 61602U 24188J   25091.25002315  .00000013  00000+0  00000+0 0  9995
2 61602  87.8383 109.1997 0004323  59.4910 313.6233 13.29539083 24774
